CTC2_L_00381001-01
1 50893U 26503MC  26070.40847222  .00000000  00000+0  00000-0 0  9994
2 50893  40.0000   0.0000 0000000   0.0000   0.0000 12.90384021    12
CTC2_L_00381001-02
1 50894U 26515GN  26070.40847222  .00000000  00000+0  00000-0 0  9998
2 50894  40.0000   0.0000 0000000   0.0000  90.0000 12.90384021    12
CTC2_L_00381001-03
1 50895U 22122RU  26070.40847222  .00000000  00000+0  00000-0 0  9999
2 50895  40.0000   0.0000 0000000   0.0000 180.0000 12.90384021    13
CTC2_L_00381001-04
1 50896U 25350ZK  26070.40847222  .00000000  00000+0  00000-0 0  9996
2 50896  40.0000   0.0000 0000000   0.0000 270.0000 12.90384021    14
CTC2_L_00381002-01
1 50897U 24334IH  26070.40847222  .00000000  00000+0  00000-0 0  9998
2 50897  40.0000  12.0000 0000000   0.0000  12.0000 12.90384021    12
CTC2_L_00381002-02
1 50898U 22887JT  26070.40847222  .00000000  00000+0  00000-0 0  9990
2 50898  40.0000  12.0000 0000000   0.0000 102.0000 12.90384021    13
CTC2_L_00381002-03
1 50899U 22817OD  26070.40847222  .00000000  00000+0  00000-0 0  9994
2 50899  40.0000  12.0000 0000000   0.0000 192.0000 12.90384021    13
CTC2_L_00381002-04
1 50900U 23720HO  26070.40847222  .00000000  00000+0  00000-0 0  9991
2 50900  40.0000  12.0000 0000000   0.0000 282.0000 12.90384021    16
CTC2_L_00381003-01
1 50901U 22687QR  26070.40847222  .00000000  00000+0  00000-0 0  9993
2 50901  40.0000  24.0000 0000000   0.0000  24.0000 12.90384021    14
CTC2_L_00381003-02
1 50902U 26181TO  26070.40847222  .00000000  00000+0  00000-0 0  9997
2 50902  40.0000  24.0000 0000000   0.0000 114.0000 12.90384021    15
CTC2_L_00381003-03
1 50903U 23407UG  26070.40847222  .00000000  00000+0  00000-0 0  9996
2 50903  40.0000  24.0000 0000000   0.0000 204.0000 12.90384021    16
CTC2_L_00381003-04
1 50904U 23312MO  26070.40847222  .00000000  00000+0  00000-0 0  9992
2 50904  40.0000  24.0000 0000000   0.0000 294.0000 12.90384021    16
CTC2_L_00381004-01
1 50905U 24343GG  26070.40847222  .00000000  00000+0  00000-0 0  9998
2 50905  40.0000  36.0000 0000000   0.0000  36.0000 12.90384021    14
CTC2_L_00381004-02
1 50906U 25754VD  26070.40847222  .00000000  00000+0  00000-0 0  9996
2 50906  40.0000  36.0000 0000000   0.0000 126.0000 12.90384021    15
CTC2_L_00381004-03
1 50907U 23462KB  26070.40847222  .00000000  00000+0  00000-0 0  9991
2 50907  40.0000  36.0000 0000000   0.0000 216.0000 12.90384021    16
CTC2_L_00381004-04
1 50908U 23263DV  26070.40847222  .00000000  00000+0  00000-0 0  9991
2 50908  40.0000  36.0000 0000000   0.0000 306.0000 12.90384021    17
CTC2_L_00381005-01
1 50909U 25967JO  26070.40847222  .00000000  00000+0  00000-0 0  9995
2 50909  40.0000  48.0000 0000000   0.0000  48.0000 12.90384021    14
CTC2_L_00381005-02
1 50910U 26413DX  26070.40847222  .00000000  00000+0  00000-0 0  9994
2 50910  40.0000  48.0000 0000000   0.0000 138.0000 12.90384021    16
CTC2_L_00381005-03
1 50911U 22457XL  26070.40847222  .00000000  00000+0  00000-0 0  9999
2 50911  40.0000  48.0000 0000000   0.0000 228.0000 12.90384021    17
CTC2_L_00381005-04
1 50912U 23283WL  26070.40847222  .00000000  00000+0  00000-0 0  9998
2 50912  40.0000  48.0000 0000000   0.0000 318.0000 12.90384021    18
CTC2_L_00381006-01
1 50913U 22333IB  26070.40847222  .00000000  00000+0  00000-0 0  9994
2 50913  40.0000  60.0000 0000000   0.0000  60.0000 12.90384021    17
CTC2_L_00381006-02
1 50914U 23690OR  26070.40847222  .00000000  00000+0  00000-0 0  9992
2 50914  40.0000  60.0000 0000000   0.0000 150.0000 12.90384021    18
CTC2_L_00381006-03
1 50915U 24537KC  26070.40847222  .00000000  00000+0  00000-0 0  9994
2 50915  40.0000  60.0000 0000000   0.0000 240.0000 12.90384021    19
CTC2_L_00381006-04
1 50916U 25466IQ  26070.40847222  .00000000  00000+0  00000-0 0  9997
2 50916  40.0000  60.0000 0000000   0.0000 330.0000 12.90384021    10
CTC2_L_00381007-01
1 50917U 26650RX  26070.40847222  .00000000  00000+0  00000-0 0  9994
2 50917  40.0000  72.0000 0000000   0.0000  72.0000 12.90384021    17
CTC2_L_00381007-02
1 50918U 23361FR  26070.40847222  .00000000  00000+0  00000-0 0  9991
2 50918  40.0000  72.0000 0000000   0.0000 162.0000 12.90384021    18
CTC2_L_00381007-03
1 50919U 22781XB  26070.40847222  .00000000  00000+0  00000-0 0  9997
2 50919  40.0000  72.0000 0000000   0.0000 252.0000 12.90384021    19
CTC2_L_00381007-04
1 50920U 26001UF  26070.40847222  .00000000  00000+0  00000-0 0  9998
2 50920  40.0000  72.0000 0000000   0.0000 342.0000 12.90384021    11
CTC2_L_00381008-01
1 50921U 24103NL  26070.40847222  .00000000  00000+0  00000-0 0  9990
2 50921  40.0000  84.0000 0000000   0.0000  84.0000 12.90384021    18
CTC2_L_00381008-02
1 50922U 25640LQ  26070.40847222  .00000000  00000+0  00000-0 0  9998
2 50922  40.0000  84.0000 0000000   0.0000 174.0000 12.90384021    19
CTC2_L_00381008-03
1 50923U 22381BT  26070.40847222  .00000000  00000+0  00000-0 0  9998
2 50923  40.0000  84.0000 0000000   0.0000 264.0000 12.90384021    10
CTC2_L_00381008-04
1 50924U 23614YU  26070.40847222  .00000000  00000+0  00000-0 0  9999
2 50924  40.0000  84.0000 0000000   0.0000 354.0000 12.90384021    11
CTC2_L_00381009-01
1 50925U 23321ED  26070.40847222  .00000000  00000+0  00000-0 0  9995
2 50925  40.0000  96.0000 0000000   0.0000  96.0000 12.90384021    18
CTC2_L_00381009-02
1 50926U 23035TP  26070.40847222  .00000000  00000+0  00000-0 0  9998
2 50926  40.0000  96.0000 0000000   0.0000 186.0000 12.90384021    19
CTC2_L_00381009-03
1 50927U 24143KK  26070.40847222  .00000000  00000+0  00000-0 0  9990
2 50927  40.0000  96.0000 0000000   0.0000 276.0000 12.90384021    10
CTC2_L_00381009-04
1 50928U 25280AJ  26070.40847222  .00000000  00000+0  00000-0 0  9994
2 50928  40.0000  96.0000 0000000   0.0000   6.0000 12.90384021    12
CTC2_L_00381010-01
1 50929U 25549YT  26070.40847222  .00000000  00000+0  00000-0 0  9993
2 50929  40.0000 108.0000 0000000   0.0000 108.0000 12.90384021    10
CTC2_L_00381010-02
1 50930U 26773PH  26070.40847222  .00000000  00000+0  00000-0 0  9995
2 50930  40.0000 108.0000 0000000   0.0000 198.0000 12.90384021    11
CTC2_L_00381010-03
1 50931U 23663QY  26070.40847222  .00000000  00000+0  00000-0 0  9991
2 50931  40.0000 108.0000 0000000   0.0000 288.0000 12.90384021    12
CTC2_L_00381010-04
1 50932U 23797UZ  26070.40847222  .00000000  00000+0  00000-0 0  9990
2 50932  40.0000 108.0000 0000000   0.0000  18.0000 12.90384021    14
CTC2_L_00381011-01
1 50933U 23444JH  26070.40847222  .00000000  00000+0  00000-0 0  9990
2 50933  40.0000 120.0000 0000000   0.0000 120.0000 12.90384021    13
CTC2_L_00381011-02
1 50934U 26748EE  26070.40847222  .00000000  00000+0  00000-0 0  9991
2 50934  40.0000 120.0000 0000000   0.0000 210.0000 12.90384021    14
CTC2_L_00381011-03
1 50935U 26916GQ  26070.40847222  .00000000  00000+0  00000-0 0  9999
2 50935  40.0000 120.0000 0000000   0.0000 300.0000 12.90384021    15
CTC2_L_00381011-04
1 50936U 23727TY  26070.40847222  .00000000  00000+0  00000-0 0  9997
2 50936  40.0000 120.0000 0000000   0.0000  30.0000 12.90384021    16
CTC2_L_00381012-01
1 50937U 25591ZY  26070.40847222  .00000000  00000+0  00000-0 0  9999
2 50937  40.0000 132.0000 0000000   0.0000 132.0000 12.90384021    13
CTC2_L_00381012-02
1 50938U 26503BW  26070.40847222  .00000000  00000+0  00000-0 0  9994
2 50938  40.0000 132.0000 0000000   0.0000 222.0000 12.90384021    14
CTC2_L_00381012-03
1 50939U 24410N   26070.40847222  .00000000  00000+0  00000-0 0  9990
2 50939  40.0000 132.0000 0000000   0.0000 312.0000 12.90384021    15
CTC2_L_00381012-04
1 50940U 23939WA  26070.40847222  .00000000  00000+0  00000-0 0  9997
2 50940  40.0000 132.0000 0000000   0.0000  42.0000 12.90384021    17
CTC2_L_00381013-01
1 50941U 23965YE  26070.40847222  .00000000  00000+0  00000-0 0  9997
2 50941  40.0000 144.0000 0000000   0.0000 144.0000 12.90384021    14
CTC2_L_00381013-02
1 50942U 22826O   26070.40847222  .00000000  00000+0  00000-0 0  9993
2 50942  40.0000 144.0000 0000000   0.0000 234.0000 12.90384021    15
CTC2_L_00381013-03
1 50943U 25320WA  26070.40847222  .00000000  00000+0  00000-0 0  9996
2 50943  40.0000 144.0000 0000000   0.0000 324.0000 12.90384021    16
CTC2_L_00381013-04
1 50944U 25083FN  26070.40847222  .00000000  00000+0  00000-0 0  9993
2 50944  40.0000 144.0000 0000000   0.0000  54.0000 12.90384021    17
CTC2_L_00381014-01
1 50945U 25472FV  26070.40847222  .00000000  00000+0  00000-0 0  9996
2 50945  40.0000 156.0000 0000000   0.0000 156.0000 12.90384021    14
CTC2_L_00381014-02
1 50946U 26025ZZ  26070.40847222  .00000000  00000+0  00000-0 0  9992
2 50946  40.0000 156.0000 0000000   0.0000 246.0000 12.90384021    15
CTC2_L_00381014-03
1 50947U 25103NN  26070.40847222  .00000000  00000+0  00000-0 0  9999
2 50947  40.0000 156.0000 0000000   0.0000 336.0000 12.90384021    16
CTC2_L_00381014-04
1 50948U 22346BC  26070.40847222  .00000000  00000+0  00000-0 0  9996
2 50948  40.0000 156.0000 0000000   0.0000  66.0000 12.90384021    17
CTC2_L_00381015-01
1 50949U 24392BV  26070.40847222  .00000000  00000+0  00000-0 0  9990
2 50949  40.0000 168.0000 0000000   0.0000 168.0000 12.90384021    14
CTC2_L_00381015-02
1 50950U 25952BB  26070.40847222  .00000000  00000+0  00000-0 0  9995
2 50950  40.0000 168.0000 0000000   0.0000 258.0000 12.90384021    16
CTC2_L_00381015-03
1 50951U 23367NY  26070.40847222  .00000000  00000+0  00000-0 0  9994
2 50951  40.0000 168.0000 0000000   0.0000 348.0000 12.90384021    17
CTC2_L_00381015-04
1 50952U 22135AT  26070.40847222  .00000000  00000+0  00000-0 0  9997
2 50952  40.0000 168.0000 0000000   0.0000  78.0000 12.90384021    18
CTC2_L_00381016-01
1 50953U 26956YR  26070.40847222  .00000000  00000+0  00000-0 0  9993
2 50953  40.0000 180.0000 0000000   0.0000 180.0000 12.90384021    17
CTC2_L_00381016-02
1 50954U 26961AH  26070.40847222  .00000000  00000+0  00000-0 0  9990
2 50954  40.0000 180.0000 0000000   0.0000 270.0000 12.90384021    18
